OSCAR 7 (AO-7)          
1 07530U 74089B   23013.92579480 -.00000024  00000+0  13542-3 0  9990
2 07530 101.9320 359.6584 0012283 359.9108  28.0781 12.53660104203845
PHASE 3B (AO-10)        
1 14129U 83058B   23013.52969678 -.00000104  00000+0  00000+0 0  9996
2 14129  26.8054  61.7142 6032720 139.4370 286.2482  2.05869380269732
UOSAT 2 (UO-11)         
1 14781U 84021B   23014.17983887  .00002651  00000+0  32337-3 0  9991
2 14781  97.6405 357.3190 0008164   0.0693   0.0521 14.84132938 92292
LUSAT (LO-19)           
1 20442U 90005G   23014.16301099  .00000353  00000+0  14556-3 0  9999
2 20442  98.8244 347.5670 0010665 270.8845  89.1116 14.33140048723346
EYESAT A (AO-27)        
1 22825U 93061C   23014.09410965  .00000201  00000+0  95455-4 0  9996
2 22825  98.8640  54.3324 0008954 151.8155 208.3513 14.30229126528534
ITAMSAT (IO-26)         
1 22826U 93061D   23014.06600023  .00000225  00000+0  10398-3 0  9998
2 22826  98.8585  54.1718 0009669 139.3860 220.8045 14.30581308528774
RADIO ROSTO (RS-15)     
1 23439U 94085A   23013.94720327 -.00000039  00000+0  10000-3 0  9996
2 23439  64.8136 165.1552 0166315 236.6792 121.8111 11.27573197155226
JAS-2 (FO-29)           
1 24278U 96046B   23014.24435947  .00000036  00000+0  68885-4 0  9993
2 24278  98.5155  13.8875 0351294  96.2898 267.8369 13.53127856304364
TECHSAT 1B (GO-32)      
1 25397U 98043D   23014.11413303  .00000189  00000+0  10248-3 0  9991
2 25397  98.8479 330.4318 0000983 164.9413 195.1794 14.23804354273623
ISS (ZARYA)             
1 25544U 98067A   23014.24376157  .00014920  00000+0  26700-3 0  9998
2 25544  51.6444  11.0691 0004538 264.1586 284.6387 15.50196940377911
PCSAT (NO-44)           
1 26931U 01043C   23013.86466984  .00000241  00000+0  12337-3 0  9994
2 26931  67.0496 235.2603 0005406 279.2247  80.8242 14.30792732111504
SAUDISAT 1C (SO-50)     
1 27607U 02058C   23014.12827278  .00002676  00000+0  38281-3 0  9999
2 27607  64.5566  17.0160 0079765 254.6578 104.5700 14.76592114 79689
CUTE-1 (CO-55)          
1 27844U 03031E   23013.80755928  .00000522  00000+0  25288-3 0  9991
2 27844  98.6795  23.3334 0009332 207.5495 152.5190 14.22585150 13783
CUBESAT XI-IV (CO-57)   
1 27848U 03031J   23013.55574602  .00000435  00000+0  21606-3 0  9998
2 27848  98.6834  23.5540 0008956 224.0448 136.0017 14.22123099 13522
MOZHAYETS 4 (RS-22)     
1 27939U 03042A   23014.08303246  .00001789  00000+0  32243-3 0  9996
2 27939  98.2174 160.1786 0011480 262.4322  97.5557 14.67741327 31933
CUBESAT XI-V            
1 28895U 05043F   23014.08536741  .00002926  00000+0  55596-3 0  9999
2 28895  98.1307 147.6342 0016183 194.0371 166.0384 14.64831451918477
FALCONSAT-3             
1 30776U 07006E   23014.10381917  .00839565  33689-3  13526-2 0  9993
2 30776  35.4209 293.2362 0010391 259.8307 100.1269 16.02403991882634
CUTE-1.7+APD II (CO-65) 
1 32785U 08021C   23013.82896844  .00004761  00000+0  49156-3 0  9999
2 32785  97.6866 343.4649 0010964 254.5186 105.4821 14.90588034797885
DELFI-C3 (DO-64)        
1 32789U 08021G   23014.03606762  .00038662  00000+0  17629-2 0  9991
2 32789  97.3224  38.3318 0007361 319.3713  40.6972 15.20506706803942
SEEDS II (CO-66)        
1 32791U 08021J   23013.64911557  .00007063  00000+0  66433-3 0  9990
2 32791  97.6381 348.5865 0011826 202.6177 157.4524 14.94135597798561
YUBILEINY (RS-30)       
1 32953U 08025A   23014.10058160  .00000024  00000+0  10000-3 0  9997
2 32953  82.5037  52.9327 0019991 157.6420 287.2835 12.43117389664506
KKS-1 (KISEKI)          
1 33499U 09002H   23013.91288364  .00002324  00000+0  34166-3 0  9992
2 33499  98.1916 264.1429 0009168  10.5791 349.5609 14.76417773751296
SWISSCUBE               
1 35932U 09051B   23013.51947350  .00001534  00000+0  35032-3 0  9998
2 35932  98.5415 240.0557 0008399 117.4725 242.7328 14.57199350706684
BEESAT-1                
1 35933U 09051C   23014.16135893  .00001497  00000+0  34250-3 0  9991
2 35933  98.5349 242.1841 0006523 125.2292 234.9517 14.57177120706935
ITUPSAT1                
1 35935U 09051E   23013.89674708  .00001349  00000+0  31563-3 0  9995
2 35935  98.5451 241.9104 0008739 131.8521 228.3423 14.56262307706506
XIWANG-1 (HOPE-1)       
1 36122U 09072B   23014.18015726  .00000006  00000+0  12864-3 0  9991
2 36122 100.2160 343.0726 0007096 213.1151 146.9519 13.16376234628633
JUGNU                   
1 37839U 11058B   23014.09556233  .00000627  00000+0  19101-3 0  9997
2 37839  19.9627 337.7705 0018676 319.8196 125.1897 14.12856417582077
SRMSAT                  
1 37841U 11058D   23014.17417674  .00000535  00000+0  14906-3 0  9990
2 37841  19.9731  61.1359 0011969 138.3405 257.9689 14.10813617581259
M-CUBED & EXP-1 PRIME   
1 37855U 11061F   23014.11519196  .00021526  00000+0  83523-3 0  9999
2 37855 101.7113 250.8836 0139633 148.8579 212.1009 15.17529982613591
STRAND-1                
1 39090U 13009E   23014.10226478  .00000540  00000+0  20273-3 0  9999
2 39090  98.3910 211.6438 0009206  11.0281 349.1105 14.35411631517632
SOMP                    
1 39134U 13015E   23014.15591651  .00050562  00000+0  13504-2 0  9995
2 39134  64.8578  86.6768 0026164 255.5748 104.2483 15.37458788539517
BEESAT-3                
1 39135U 13015F   23014.30704697  .00044440  00000+0  14929-2 0  9999
2 39135  64.8632 128.3311 0032341 253.2775 106.4807 15.30087588538721
BEESAT-2                
1 39136U 13015G   23013.60195790  .00029744  00000+0  10613-2 0  9996
2 39136  64.8721 140.2808 0026098 288.2891  71.5401 15.28451241538443
ZACUBE-1 (TSHEPISOSAT)  
1 39417U 13066B   23014.11888331  .00005856  00000+0  70022-3 0  9990
2 39417  97.6659 341.5520 0058226  74.1736 286.5887 14.83311006494344
GOMX-1                  
1 39430U 13066Q   23014.13131995  .00001764  00000+0  31701-3 0  9999
2 39430  97.7964 274.1884 0149184 100.1463 261.6612 14.60817824487047
CUBEBUG-2 (LO-74)       
1 39440U 13066AA  23013.61856798  .00003511  00000+0  47074-3 0  9999
2 39440  97.7550 327.7553 0077753 168.4136 191.8888 14.77894254491317
FUNCUBE-1 (AO-73)       
1 39444U 13066AE  23013.63274698  .00006061  00000+0  70310-3 0  9990
2 39444  97.6530 343.5352 0056732  62.8569 297.8415 14.84602978492695
UWE-3                   
1 39446U 13066AG  23014.15365558  .00004530  00000+0  57503-3 0  9994
2 39446  97.7157 334.5559 0068804 121.4642 239.3320 14.80482425492212
SPROUT                  
1 39770U 14029E   23014.11662478  .00016513  00000+0  15284-2 0  9994
2 39770  97.9596 138.0659 0008872 108.3330 251.8897 14.94568406469082
UNISAT-6                
1 40012U 14033C   23014.06155135  .00004829  00000+0  69670-3 0  9997
2 40012  97.6609 195.9023 0056234 195.3730 164.5774 14.75611876461037
DUCHIFAT-1              
1 40021U 14033M   23013.42862566  .00010164  00000+0  93965-3 0  9992
2 40021  98.0399 332.9729 0013566  70.5311 289.7373 14.94701828466043
QB50P1                  
1 40025U 14033R   23013.57904545  .00006621  00000+0  66176-3 0  9993
2 40025  97.9817 317.9793 0013430  85.9394 274.3359 14.91747797465073
NUDT-PHONESAT           
1 40900U 15049B   23014.13650578  .00113579  00000+0  17279-2 0  9990
2 40900  97.3793  40.1300 0004749 213.2079 219.1406 15.54123322407090
ZDPS 2A                 
1 40901U 15049C   23013.53433400  .00029542  00000+0  10188-2 0  9995
2 40901  97.4558  26.9949 0008965 334.4733  25.6064 15.29907765405506
ZDPS 2B                 
1 40902U 15049D   23014.18290575  .00028682  00000+0  97383-3 0  9999
2 40902  97.4652  25.6739 0008844 327.3573 102.9399 15.30422367405584
XW-2A                   
1 40903U 15049E   23014.11913361  .00080323  00000+0  72006-3 0  9993
2 40903  97.1467  79.2599 0007365  61.3670  23.3135 15.68030228412084
KAITUO 1A               
1 40904U 15049F   23014.17835983  .00015161  00000+0  69072-3 0  9990
2 40904  97.4984  20.0622 0012978   5.5061 121.3272 15.20690605404859
2015-049G               
1 40905U 15049G   23014.15792853  .00007108  00000+0  34996-3 0  9996
2 40905  97.5214  17.2355 0014476   9.0158  53.2321 15.18199627404560
XW-2C                   
1 40906U 15049H   23014.15674706  .00011815  00000+0  52213-3 0  9995
2 40906  97.4962  21.2764 0012420 352.3309  71.8973 15.21803041404934
XW-2D                   
1 40907U 15049J   23014.19760712  .00013906  00000+0  59475-3 0  9993
2 40907  97.4941  21.5280 0011777 346.3853  79.4436 15.22884776405001
LILACSAT-2              
1 40908U 15049K   23014.11433660  .00006429  00000+0  32501-3 0  9998
2 40908  97.5220  17.8858 0015175  13.0299  55.0636 15.17305362404419
XW-2E                   
1 40909U 15049L   23014.13984042  .00022776  00000+0  81964-3 0  9996
2 40909  97.4616  26.6253 0009458 320.2010 105.0031 15.28564869405536
XW-2F                   
1 40910U 15049M   23014.14243154  .00022505  00000+0  82375-3 0  9998
2 40910  97.4702  25.8188 0010409 321.4716 103.5329 15.28001335405296
XW-2B                   
1 40911U 15049N   23014.17547664  .00013685  00000+0  58799-3 0  9997
2 40911  97.4930  22.0288 0011713 349.0764  81.6282 15.22732971404887
KAITUO 1B               
1 40912U 15049P   23014.13577044  .00026289  00000+0  85304-3 0  9995
2 40912  97.4294  30.1871 0009409 277.3364 155.3140 15.31899049405936
LAPAN-A2                
1 40931U 15052B   23013.67362976  .00001391  00000+0  10359-3 0  9999
2 40931   5.9952 109.2807 0013649 267.4998  92.3640 14.76975220394478
E-ST@R-II               
1 41459U 16025D   23014.29407506  .00027656  00000+0  10410-2 0  9993
2 41459  98.1903 201.1309 0128794 271.2657  87.3919 15.19579188369449
AAUSAT 4                
1 41460U 16025E   23014.15025226  .00057864  00000+0  16836-2 0  9997
2 41460  98.1768 209.6195 0100572 239.0417 244.9780 15.30265936370025
NUSAT-1 (FRESCO)        
1 41557U 16033B   23014.22754201  .00034586  00000+0  80735-3 0  9999
2 41557  97.3883 118.2349 0009221 347.4094  96.1695 15.42088264369773
